{"type": "FeatureCollection", "features": [{"type": "Feature", "properties": {"norad_id": 2807, "name": "OPS 7218 (TRANSIT 16)", "group": "nnss", "lat": -84.92045563390262, "lon": 177.28312510172935, "alt_km": 1093.5332612093343, "timestamp": "2025-12-25T03:55:56.626154+00:00", "meta": {"OBJECT_NAME": "OPS 7218 (TRANSIT 16)", "OBJECT_ID": "1967-048A", "EPOCH": "2025-12-24T18:35:30.827904", "MEAN_MOTION": 13.50724692, "ECCENTRICITY": 0.0022149, "INCLINATION": 89.6734, "RA_OF_ASC_NODE": 353.6169, "ARG_OF_PERICENTER": 82.0578, "MEAN_ANOMALY": 91.5393, "EPHEMERIS_TYPE": 0, "CLASSIFICATION_TYPE": "U", "NORAD_CAT_ID": 2807, "ELEMENT_SET_NO": 999, "REV_AT_EPOCH": 88438, "BSTAR": 0.00013476, "MEAN_MOTION_DOT": 9.7e-07, "MEAN_MOTION_DDOT": 0}, "tle": {"line1": "1 02807U 67048A   25358.77466236  .00000097  00000+0  13476-3 0  9995", "line2": "2 02807  89.6734 353.6169 0022149  82.0578  91.5393 13.50724692884387"}}, "geometry": {"type": "Point", "coordinates": [177.28312510172935, -84.92045563390262]}}, {"type": "Feature", "properties": {"norad_id": 2965, "name": "OPS 4947 (TRANSIT 17)", "group": "nnss", "lat": 88.79652229712194, "lon": 164.8292349704515, "alt_km": 1062.0263144226, "timestamp": "2025-12-25T03:55:56.626177+00:00", "meta": {"OBJECT_NAME": "OPS 4947 (TRANSIT 17)", "OBJECT_ID": "1967-092A", "EPOCH": "2025-12-24T15:39:13.886784", "MEAN_MOTION": 13.53456658, "ECCENTRICITY": 0.0047085, "INCLINATION": 89.2486, "RA_OF_ASC_NODE": 23.5265, "ARG_OF_PERICENTER": 199.1608, "MEAN_ANOMALY": 281.0103, "EPHEMERIS_TYPE": 0, "CLASSIFICATION_TYPE": "U", "NORAD_CAT_ID": 2965, "ELEMENT_SET_NO": 999, "REV_AT_EPOCH": 87258, "BSTAR": 0.0001804, "MEAN_MOTION_DOT": 1.33e-06, "MEAN_MOTION_DDOT": 0}, "tle": {"line1": "1 02965U 67092A   25358.65224406  .00000133  00000+0  18040-3 0  9990", "line2": "2 02965  89.2486  23.5265 0047085 199.1608 281.0103 13.53456658872583"}}, "geometry": {"type": "Point", "coordinates": [164.8292349704515, 88.79652229712194]}}, {"type": "Feature", "properties": {"norad_id": 3133, "name": "OPS 7034 (TRANSIT 18)", "group": "nnss", "lat": 23.281232127303163, "lon": 93.68659654037388, "alt_km": 1014.6613590465804, "timestamp": "2025-12-25T03:55:56.626213+00:00", "meta": {"OBJECT_NAME": "OPS 7034 (TRANSIT 18)", "OBJECT_ID": "1968-012A", "EPOCH": "2025-12-24T18:32:58.947936", "MEAN_MOTION": 13.51568466, "ECCENTRICITY": 0.0074953, "INCLINATION": 90.0285, "RA_OF_ASC_NODE": 273.6732, "ARG_OF_PERICENTER": 134.5685, "MEAN_ANOMALY": 280.6432, "EPHEMERIS_TYPE": 0, "CLASSIFICATION_TYPE": "U", "NORAD_CAT_ID": 3133, "ELEMENT_SET_NO": 999, "REV_AT_EPOCH": 57081, "BSTAR": 0.00020607, "MEAN_MOTION_DOT": 1.47e-06, "MEAN_MOTION_DDOT": 0}, "tle": {"line1": "1 03133U 68012A   25358.77290449  .00000147  00000+0  20607-3 0  9991", "line2": "2 03133  90.0285 273.6732 0074953 134.5685 280.6432 13.51568466570817"}}, "geometry": {"type": "Point", "coordinates": [93.68659654037388, 23.281232127303163]}}, {"type": "Feature", "properties": {"norad_id": 4507, "name": "NNSS 19 (TRANSIT 19)", "group": "nnss", "lat": 64.64740911749817, "lon": 54.552363821731134, "alt_km": 1159.856090718653, "timestamp": "2025-12-25T03:55:56.626226+00:00", "meta": {"OBJECT_NAME": "NNSS 19 (TRANSIT 19)", "OBJECT_ID": "1970-067A", "EPOCH": "2025-12-24T16:41:08.378304", "MEAN_MOTION": 13.51317454, "ECCENTRICITY": 0.0170208, "INCLINATION": 90.0048, "RA_OF_ASC_NODE": 234.542, "ARG_OF_PERICENTER": 258.3836, "MEAN_ANOMALY": 99.8168, "EPHEMERIS_TYPE": 0, "CLASSIFICATION_TYPE": "U", "NORAD_CAT_ID": 4507, "ELEMENT_SET_NO": 999, "REV_AT_EPOCH": 72383, "BSTAR": 0.00013259, "MEAN_MOTION_DOT": 1.02e-06, "MEAN_MOTION_DDOT": 0}, "tle": {"line1": "1 04507U 70067A   25358.69523586  .00000102  00000+0  13259-3 0  9998", "line2": "2 04507  90.0048 234.5420 0170208 258.3836  99.8168 13.51317454723830"}}, "geometry": {"type": "Point", "coordinates": [54.552363821731134, 64.64740911749817]}}, {"type": "Feature", "properties": {"norad_id": 6909, "name": "NNSS 20 (TRANSIT 20)", "group": "nnss", "lat": 6.759029230398373, "lon": -105.11483724974416, "alt_km": 901.1043011847914, "timestamp": "2025-12-25T03:55:56.626237+00:00", "meta": {"OBJECT_NAME": "NNSS 20 (TRANSIT 20)", "OBJECT_ID": "1973-081A", "EPOCH": "2025-12-24T15:38:35.405952", "MEAN_MOTION": 13.71440507, "ECCENTRICITY": 0.015617, "INCLINATION": 89.856, "RA_OF_ASC_NODE": 254.8758, "ARG_OF_PERICENTER": 43.0124, "MEAN_ANOMALY": 318.3123, "EPHEMERIS_TYPE": 0, "CLASSIFICATION_TYPE": "U", "NORAD_CAT_ID": 6909, "ELEMENT_SET_NO": 999, "REV_AT_EPOCH": 80524, "BSTAR": 0.00028034, "MEAN_MOTION_DOT": 2.86e-06, "MEAN_MOTION_DDOT": 0}, "tle": {"line1": "1 06909U 73081A   25358.65179868  .00000286  00000+0  28034-3 0  9991", "line2": "2 06909  89.8560 254.8758 0156170  43.0124 318.3123 13.71440507805247"}}, "geometry": {"type": "Point", "coordinates": [-105.11483724974416, 6.759029230398373]}}, {"type": "Feature", "properties": {"norad_id": 10457, "name": "TRANSAT", "group": "nnss", "lat": 15.296736685030195, "lon": 78.25334973315327, "alt_km": 1091.7620739421063, "timestamp": "2025-12-25T03:55:56.626249+00:00", "meta": {"OBJECT_NAME": "TRANSAT", "OBJECT_ID": "1977-106A", "EPOCH": "2025-12-24T19:31:39.577728", "MEAN_MOTION": 13.48945426, "ECCENTRICITY": 0.0026488, "INCLINATION": 89.6475, "RA_OF_ASC_NODE": 78.1693, "ARG_OF_PERICENTER": 155.2658, "MEAN_ANOMALY": 320.7199, "EPHEMERIS_TYPE": 0, "CLASSIFICATION_TYPE": "U", "NORAD_CAT_ID": 10457, "ELEMENT_SET_NO": 999, "REV_AT_EPOCH": 36906, "BSTAR": 0.00012997, "MEAN_MOTION_DOT": 9.2e-07, "MEAN_MOTION_DDOT": 0}, "tle": {"line1": "1 10457U 77106A   25358.81365252  .00000092  00000+0  12997-3 0  9994", "line2": "2 10457  89.6475  78.1693 0026488 155.2658 320.7199 13.48945426369063"}}, "geometry": {"type": "Point", "coordinates": [78.25334973315327, 15.296736685030195]}}, {"type": "Feature", "properties": {"norad_id": 12458, "name": "NOVA 1", "group": "nnss", "lat": -30.993706216423654, "lon": -88.70178548861048, "alt_km": 1186.9742255356723, "timestamp": "2025-12-25T03:55:56.626260+00:00", "meta": {"OBJECT_NAME": "NOVA 1", "OBJECT_ID": "1981-044A", "EPOCH": "2025-12-24T20:15:02.808000", "MEAN_MOTION": 13.23279733, "ECCENTRICITY": 0.0015748, "INCLINATION": 89.8525, "RA_OF_ASC_NODE": 91.2141, "ARG_OF_PERICENTER": 74.27, "MEAN_ANOMALY": 52.6435, "EPHEMERIS_TYPE": 0, "CLASSIFICATION_TYPE": "U", "NORAD_CAT_ID": 12458, "ELEMENT_SET_NO": 999, "REV_AT_EPOCH": 15346, "BSTAR": 0.00017986, "MEAN_MOTION_DOT": 8.5e-07, "MEAN_MOTION_DDOT": 0}, "tle": {"line1": "1 12458U 81044A   25358.84378250  .00000085  00000+0  17986-3 0  9993", "line2": "2 12458  89.8525  91.2141 0015748  74.2700  52.6435 13.23279733153466"}}, "geometry": {"type": "Point", "coordinates": [-88.70178548861048, -30.993706216423654]}}, {"type": "Feature", "properties": {"norad_id": 15362, "name": "NOVA 3", "group": "nnss", "lat": 73.21225716102258, "lon": 80.2771643545374, "alt_km": 1182.6824323428018, "timestamp": "2025-12-25T03:55:56.626271+00:00", "meta": {"OBJECT_NAME": "NOVA 3", "OBJECT_ID": "1984-110A", "EPOCH": "2025-12-24T17:15:40.666752", "MEAN_MOTION": 13.23046037, "ECCENTRICITY": 0.0029874, "INCLINATION": 90.1217, "RA_OF_ASC_NODE": 80.6756, "ARG_OF_PERICENTER": 297.3866, "MEAN_ANOMALY": 179.0949, "EPHEMERIS_TYPE": 0, "CLASSIFICATION_TYPE": "U", "NORAD_CAT_ID": 15362, "ELEMENT_SET_NO": 999, "REV_AT_EPOCH": 98857, "BSTAR": 0.0001471, "MEAN_MOTION_DOT": 7e-07, "MEAN_MOTION_DDOT": 0}, "tle": {"line1": "1 15362U 84110A   25358.71922068  .00000070  00000+0  14710-3 0  9991", "line2": "2 15362  90.1217  80.6756 0029874 297.3866 179.0949 13.23046037988577"}}, "geometry": {"type": "Point", "coordinates": [80.2771643545374, 73.21225716102258]}}, {"type": "Feature", "properties": {"norad_id": 15935, "name": "OSCAR 30", "group": "nnss", "lat": 14.752202637903872, "lon": 100.00661180574706, "alt_km": 1019.4040394343056, "timestamp": "2025-12-25T03:55:56.626283+00:00", "meta": {"OBJECT_NAME": "OSCAR 30", "OBJECT_ID": "1985-066A", "EPOCH": "2025-12-24T17:39:41.830848", "MEAN_MOTION": 13.36080379, "ECCENTRICITY": 0.0168886, "INCLINATION": 90.1653, "RA_OF_ASC_NODE": 100.0432, "ARG_OF_PERICENTER": 50.3743, "MEAN_ANOMALY": 68.3865, "EPHEMERIS_TYPE": 0, "CLASSIFICATION_TYPE": "U", "NORAD_CAT_ID": 15935, "ELEMENT_SET_NO": 999, "REV_AT_EPOCH": 96613, "BSTAR": 0.00021298, "MEAN_MOTION_DOT": 1.28e-06, "MEAN_MOTION_DDOT": 0}, "tle": {"line1": "1 15935U 85066A   25358.73590082  .00000128  00000+0  21298-3 0  9990", "line2": "2 15935  90.1653 100.0432 0168886  50.3743  68.3865 13.36080379966139"}}, "geometry": {"type": "Point", "coordinates": [100.00661180574706, 14.752202637903872]}}, {"type": "Feature", "properties": {"norad_id": 15936, "name": "OSCAR 24", "group": "nnss", "lat": 85.86869440168017, "lon": 90.04334422680435, "alt_km": 1006.2224423579155, "timestamp": "2025-12-25T03:55:56.626308+00:00", "meta": {"OBJECT_NAME": "OSCAR 24", "OBJECT_ID": "1985-066B", "EPOCH": "2025-12-24T20:54:20.922336", "MEAN_MOTION": 13.35937478, "ECCENTRICITY": 0.0170066, "INCLINATION": 90.1791, "RA_OF_ASC_NODE": 92.52, "ARG_OF_PERICENTER": 56.4546, "MEAN_ANOMALY": 61.219, "EPHEMERIS_TYPE": 0, "CLASSIFICATION_TYPE": "U", "NORAD_CAT_ID": 15936, "ELEMENT_SET_NO": 999, "REV_AT_EPOCH": 96805, "BSTAR": 0.0001545, "MEAN_MOTION_DOT": 9.5e-07, "MEAN_MOTION_DDOT": 0}, "tle": {"line1": "1 15936U 85066B   25358.87107549  .00000095  00000+0  15450-3 0  9994", "line2": "2 15936  90.1791  92.5200 0170066  56.4546  61.2190 13.35937478968058"}}, "geometry": {"type": "Point", "coordinates": [90.04334422680435, 85.86869440168017]}}]}